LEMUR-2-PETERG          
1 42841U 17042S   26068.48235713  .00023240  00000+0  81076-3 0  9993
2 42841  97.3980 253.6596 0003700 341.6938  18.4169 15.29611459473171
STARLINK-32087          
1 59702U 24086W   26068.03930761 -.00000809  00000+0 -19882-4 0  9994
2 59702  43.0047  63.4841 0001121 270.5302  89.5421 15.27570023104010
